start=new Date('2021-10-17T00:00:00.000Z').valueOf();
sats=[{"MEAN_MOTION_DOT":"-0.00609969","PERIAPSIS":"373.736","APOAPSIS":"378.291","MEAN_ELEMENT_THEORY":"SGP4","ARG_OF_PERICENTER":"36.6427","COUNTRY_CODE":"US","TLE_LINE1":"1 48092U 21027A   21289.03175191 -.00609969  00000-0 -68107-2 0  9999","MEAN_MOTION":"15.64036469","LAUNCH_DATE":"2021-04-07","OBJECT_TYPE":"PAYLOAD","MEAN_ANOMALY":"323.4817","REF_FRAME":"TEME","ELEMENT_SET_NO":"999","CLASSIFICATION_TYPE":"U","ECCENTRICITY":"0.00033720","TLE_LINE2":"2 48092  53.0418 109.8196 0003372  36.6427 323.4817 15.64036469 31380","GP_ID":"187325008","EPOCH":"2021-10-16T00:45:43.365024","SEMIMAJOR_AXIS":"6754.148","FILE":"3166151","MEAN_MOTION_DDOT":"0.0000000000000","NORAD_CAT_ID":"48092","REV_AT_EPOCH":"3138","RCS_SIZE":"LARGE","EPHEMERIS_TYPE":"0","TIME_SYSTEM":"UTC","DECAY_DATE":null,"OBJECT_NAME":"STARLINK-2048","PERIOD":"92.069","INCLINATION":"53.0418","RA_OF_ASC_NODE":"109.8196","CENTER_NAME":"EARTH","SITE":"AFETR","OBJECT_ID":"2021-027A","BSTAR":"-0.00681070000000"},{"RA_OF_ASC_NODE":"169.2283","INCLINATION":"53.0553","PERIOD":"95.593","OBJECT_NAME":"STARLINK-2404","DECAY_DATE":null,"BSTAR":"-0.00000067183000","OBJECT_ID":"2021-027B","CENTER_NAME":"EARTH","SITE":"AFETR","REV_AT_EPOCH":"3056","NORAD_CAT_ID":"48093","MEAN_MOTION_DDOT":"0.0000000000000","FILE":"3166610","SEMIMAJOR_AXIS":"6925.403","TIME_SYSTEM":"UTC","RCS_SIZE":"LARGE","EPHEMERIS_TYPE":"0","REF_FRAME":"TEME","MEAN_ANOMALY":"295.2529","OBJECT_TYPE":"PAYLOAD","LAUNCH_DATE":"2021-04-07","EPOCH":"2021-10-16T03:14:34.557216","TLE_LINE2":"2 48093  53.0553 169.2283 0001787  64.8646 295.2529 15.06382223 30565","GP_ID":"187357782","ECCENTRICITY":"0.00017870","ELEMENT_SET_NO":"999","CLASSIFICATION_TYPE":"U","PERIAPSIS":"546.030","MEAN_MOTION_DOT":"-0.00000292","MEAN_MOTION":"15.06382223","TLE_LINE1":"1 48093U 21027B   21289.13512219 -.00000292  00000-0 -67183-6 0  9998","COUNTRY_CODE":"US","MEAN_ELEMENT_THEORY":"SGP4","ARG_OF_PERICENTER":"64.8646","APOAPSIS":"548.506"},{"CLASSIFICATION_TYPE":"U","ELEMENT_SET_NO":"999","ECCENTRICITY":"0.00018550","GP_ID":"187324507","TLE_LINE2":"2 48094  53.0560 179.3632 0001855  71.0010 289.1180 15.06398127 30425","EPOCH":"2021-10-16T02:32:07.922400","LAUNCH_DATE":"2021-04-07","MEAN_ANOMALY":"289.1180","OBJECT_TYPE":"PAYLOAD","REF_FRAME":"TEME","APOAPSIS":"548.504","MEAN_ELEMENT_THEORY":"SGP4","ARG_OF_PERICENTER":"71.0010","COUNTRY_CODE":"US","TLE_LINE1":"1 48094U 21027C   21289.10564725 -.00001367  00000-0 -72855-4 0  9999","MEAN_MOTION":"15.06398127","MEAN_MOTION_DOT":"-0.00001367","PERIAPSIS":"545.935","CENTER_NAME":"EARTH","SITE":"AFETR","OBJECT_ID":"2021-027C","BSTAR":"-0.00007285500000","DECAY_DATE":null,"PERIOD":"95.592","OBJECT_NAME":"STARLINK-2412","INCLINATION":"53.0560","RA_OF_ASC_NODE":"179.3632","RCS_SIZE":"LARGE","EPHEMERIS_TYPE":"0","TIME_SYSTEM":"UTC","SEMIMAJOR_AXIS":"6925.354","FILE":"3166151","MEAN_MOTION_DDOT":"0.0000000000000","NORAD_CAT_ID":"48094","REV_AT_EPOCH":"3042"},{"REF_FRAME":"TEME","OBJECT_TYPE":"PAYLOAD","MEAN_ANOMALY":"286.1991","LAUNCH_DATE":"2021-04-07","ECCENTRICITY":"0.00017090","EPOCH":"2021-10-16T02:42:45.446400","GP_ID":"187357280","TLE_LINE2":"2 48095  53.0569 179.3357 0001709  73.9186 286.1991 15.06381760 30435","ELEMENT_SET_NO":"999","CLASSIFICATION_TYPE":"U","PERIAPSIS":"546.086","MEAN_MOTION_DOT":"-0.00000355","TLE_LINE1":"1 48095U 21027D   21289.11302600 -.00000355  00000-0 -49578-5 0  9996","COUNTRY_CODE":"US","MEAN_MOTION":"15.06381760","APOAPSIS":"548.453","MEAN_ELEMENT_THEORY":"SGP4","ARG_OF_PERICENTER":"73.9186","PERIOD":"95.593","OBJECT_NAME":"STARLINK-2414","RA_OF_ASC_NODE":"179.3357","INCLINATION":"53.0569","DECAY_DATE":null,"BSTAR":"-0.00000495780000","SITE":"AFETR","CENTER_NAME":"EARTH","OBJECT_ID":"2021-027D","MEAN_MOTION_DDOT":"0.0000000000000","REV_AT_EPOCH":"3043","NORAD_CAT_ID":"48095","SEMIMAJOR_AXIS":"6925.404","FILE":"3166610","TIME_SYSTEM":"UTC","RCS_SIZE":"LARGE","EPHEMERIS_TYPE":"0"},{"BSTAR":"0.00002980700000","CENTER_NAME":"EARTH","SITE":"AFETR","OBJECT_ID":"2021-027E","PERIOD":"95.592","OBJECT_NAME":"STARLINK-2417","RA_OF_ASC_NODE":"178.8567","INCLINATION":"53.0569","DECAY_DATE":null,"TIME_SYSTEM":"UTC","EPHEMERIS_TYPE":"0","RCS_SIZE":"LARGE","MEAN_MOTION_DDOT":"0.0000000000000","REV_AT_EPOCH":"3043","NORAD_CAT_ID":"48096","SEMIMAJOR_AXIS":"6925.346","FILE":"3166610","ECCENTRICITY":"0.00015870","EPOCH":"2021-10-16T05:16:39.256320","GP_ID":"187357532","TLE_LINE2":"2 48096  53.0569 178.8567 0001587  75.1477 284.9687 15.06400884 30431","ELEMENT_SET_NO":"999","CLASSIFICATION_TYPE":"U","REF_FRAME":"TEME","OBJECT_TYPE":"PAYLOAD","MEAN_ANOMALY":"284.9687","LAUNCH_DATE":"2021-04-07","TLE_LINE1":"1 48096U 21027E   21289.21989880  .00000162  00000-0  29807-4 0  9995","COUNTRY_CODE":"US","MEAN_MOTION":"15.06400884","APOAPSIS":"548.310","MEAN_ELEMENT_THEORY":"SGP4","ARG_OF_PERICENTER":"75.1477","PERIAPSIS":"546.112","MEAN_MOTION_DOT":"0.00000162"},{"BSTAR":"0.00027028000000","OBJECT_ID":"2021-027F","CENTER_NAME":"EARTH","SITE":"AFETR","RA_OF_ASC_NODE":"157.1499","INCLINATION":"53.0546","OBJECT_NAME":"STARLINK-2418","PERIOD":"95.593","DECAY_DATE":null,"TIME_SYSTEM":"UTC","RCS_SIZE":"LARGE","EPHEMERIS_TYPE":"0","REV_AT_EPOCH":"3037","NORAD_CAT_ID":"48097","MEAN_MOTION_DDOT":"0.0000000000000","FILE":"3166406","SEMIMAJOR_AXIS":"6925.404","EPOCH":"2021-10-16T14:20:43.859040","GP_ID":"187331502","TLE_LINE2":"2 48097  53.0546 157.1499 0001813  57.8668 302.2497 15.06382007 30374","ECCENTRICITY":"0.00018130","ELEMENT_SET_NO":"999","CLASSIFICATION_TYPE":"U","REF_FRAME":"TEME","OBJECT_TYPE":"PAYLOAD","MEAN_ANOMALY":"302.2497","LAUNCH_DATE":"2021-04-07","MEAN_MOTION":"15.06382007","COUNTRY_CODE":"US","TLE_LINE1":"1 48097U 21027F   21289.59772985  .00003745  00000-0  27028-3 0  9995","ARG_OF_PERICENTER":"57.8668","MEAN_ELEMENT_THEORY":"SGP4","APOAPSIS":"548.524","PERIAPSIS":"546.013","MEAN_MOTION_DOT":"0.00003745"},{"TIME_SYSTEM":"UTC","RCS_SIZE":"LARGE","EPHEMERIS_TYPE":"0","MEAN_MOTION_DDOT":"0.0000000000000","NORAD_CAT_ID":"48098","REV_AT_EPOCH":"3056","SEMIMAJOR_AXIS":"6925.379","FILE":"3166610","BSTAR":"0.00001996300000","SITE":"AFETR","CENTER_NAME":"EARTH","OBJECT_ID":"2021-027G","PERIOD":"95.593","OBJECT_NAME":"STARLINK-2421","INCLINATION":"53.0556","RA_OF_ASC_NODE":"169.0446","DECAY_DATE":null,"TLE_LINE1":"1 48098U 21027G   21289.17660187  .00000016  00000-0  19963-4 0  9998","COUNTRY_CODE":"US","MEAN_MOTION":"15.06390066","APOAPSIS":"548.363","ARG_OF_PERICENTER":"78.3711","MEAN_ELEMENT_THEORY":"SGP4","PERIAPSIS":"546.125","MEAN_MOTION_DOT":"0.00000016","ECCENTRICITY":"0.00016160","TLE_LINE2":"2 48098  53.0556 169.0446 0001616  78.3711 281.7459 15.06390066 30562","GP_ID":"187357030","EPOCH":"2021-10-16T04:14:18.401568","CLASSIFICATION_TYPE":"U","ELEMENT_SET_NO":"999","MEAN_ANOMALY":"281.7459","OBJECT_TYPE":"PAYLOAD","REF_FRAME":"TEME","LAUNCH_DATE":"2021-04-07"},{"DECAY_DATE":null,"INCLINATION":"53.0551","RA_OF_ASC_NODE":"179.3861","PERIOD":"95.593","OBJECT_NAME":"STARLINK-2428","OBJECT_ID":"2021-027H","SITE":"AFETR","CENTER_NAME":"EARTH","BSTAR":"0.00006007600000","FILE":"3166151","SEMIMAJOR_AXIS":"6925.382","NORAD_CAT_ID":"48099","REV_AT_EPOCH":"3041","MEAN_MOTION_DDOT":"0.0000000000000","EPHEMERIS_TYPE":"0","RCS_SIZE":"LARGE","TIME_SYSTEM":"UTC","LAUNCH_DATE":"2021-04-07","MEAN_ANOMALY":"292.9659","OBJECT_TYPE":"PAYLOAD","REF_FRAME":"TEME","CLASSIFICATION_TYPE":"U","ELEMENT_SET_NO":"999","TLE_LINE2":"2 48099  53.0551 179.3861 0001832  67.1523 292.9659 15.06389242 30414","GP_ID":"187324758","EPOCH":"2021-10-16T02:21:31.286592","ECCENTRICITY":"0.00018320","MEAN_MOTION_DOT":"0.00000613","PERIAPSIS":"545.978","MEAN_ELEMENT_THEORY":"SGP4","ARG_OF_PERICENTER":"67.1523","APOAPSIS":"548.515","MEAN_MOTION":"15.06389242","TLE_LINE1":"1 48099U 21027H   21289.09827878  .00000613  00000-0  60076-4 0  9996","COUNTRY_CODE":"US"},{"LAUNCH_DATE":"2021-04-07","MEAN_ANOMALY":"297.1014","OBJECT_TYPE":"PAYLOAD","REF_FRAME":"TEME","CLASSIFICATION_TYPE":"U","ELEMENT_SET_NO":"999","GP_ID":"187325009","TLE_LINE2":"2 48100  53.0557 159.5739 0001711  63.0150 297.1014 15.06384166 30696","EPOCH":"2021-10-16T01:25:47.783712","ECCENTRICITY":"0.00017110","MEAN_MOTION_DOT":"-0.00000594","PERIAPSIS":"546.077","MEAN_ELEMENT_THEORY":"SGP4","ARG_OF_PERICENTER":"63.0150","APOAPSIS":"548.447","MEAN_MOTION":"15.06384166","TLE_LINE1":"1 48100U 21027J   21289.05958083 -.00000594  00000-0 -20968-4 0  9994","COUNTRY_CODE":"US","DECAY_DATE":null,"INCLINATION":"53.0557","RA_OF_ASC_NODE":"159.5739","OBJECT_NAME":"STARLINK-2430","PERIOD":"95.593","OBJECT_ID":"2021-027J","CENTER_NAME":"EARTH","SITE":"AFETR","BSTAR":"-0.00002096800000","FILE":"3166151","SEMIMAJOR_AXIS":"6925.397","NORAD_CAT_ID":"48100","REV_AT_EPOCH":"3069","MEAN_MOTION_DDOT":"0.0000000000000","RCS_SIZE":"LARGE","EPHEMERIS_TYPE":"0","TIME_SYSTEM":"UTC"},{"OBJECT_ID":"2021-027K","SITE":"AFETR","CENTER_NAME":"EARTH","BSTAR":"-0.00000941860000","DECAY_DATE":null,"RA_OF_ASC_NODE":"169.0535","INCLINATION":"53.0560","PERIOD":"95.592","OBJECT_NAME":"STARLINK-2436","RCS_SIZE":"LARGE","EPHEMERIS_TYPE":"0","TIME_SYSTEM":"UTC","FILE":"3166610","SEMIMAJOR_AXIS":"6925.346","REV_AT_EPOCH":"3057","NORAD_CAT_ID":"48101","MEAN_MOTION_DDOT":"0.0000000000000","CLASSIFICATION_TYPE":"U","ELEMENT_SET_NO":"999","EPOCH":"2021-10-16T04:12:56.954880","GP_ID":"187357783","TLE_LINE2":"2 48101  53.0560 169.0535 0001823  53.4098 306.7059 15.06400874 30577","ECCENTRICITY":"0.00018230","LAUNCH_DATE":"2021-04-07","REF_FRAME":"TEME","MEAN_ANOMALY":"306.7059","OBJECT_TYPE":"PAYLOAD","MEAN_ELEMENT_THEORY":"SGP4","ARG_OF_PERICENTER":"53.4098","APOAPSIS":"548.473","MEAN_MOTION":"15.06400874","TLE_LINE1":"1 48101U 21027K   21289.17565920 -.00000422  00000-0 -94186-5 0  9996","COUNTRY_CODE":"US","MEAN_MOTION_DOT":"-0.00000422","PERIAPSIS":"545.948"}];
